STARLINK-31582          
1 59545U 24074M   26067.79375537 -.00001491  00000+0 -44704-4 0  9991
2 59545  42.9994 348.9022 0000645 357.1870   2.8978 15.27571925105870
FLOCK 4G-26             
1 62633U 25009AA  26068.80489479  .00011283  00000+0  42469-3 0  9999
2 62633  97.4054 151.3913 0001988 299.1273  60.9767 15.27281631 63733
